EUTELSAT 21B            
1 38992U 12062B   26002.10985604  .00000138  00000+0  00000+0 0  9995
2 38992   0.0652   7.3959 0003008 276.6617 238.8452  1.00269012 48167
EUTELSAT 70B            
1 39020U 12069A   26002.11956279 -.00000035  00000+0  00000+0 0  9999
2 39020   0.0609   6.4606 0003903 255.7484 313.0861  1.00271487 47848
EUTELSAT 117 WEST A     
1 39122U 13012A   26002.08246921 -.00000004  00000+0  00000+0 0  9999
2 39122   0.0129  25.5814 0003181 261.4365  87.5901  1.00271452 46761
EUTELSAT 7B             
1 39163U 13022A   26002.10690935  .00000056  00000+0  00000+0 0  9992
2 39163   0.0663 350.2966 0005250 333.5579 183.3749  1.00269616 46283
EXPRESS-AT1             
1 39612U 14010A   25365.17405959  .00000096  00000+0  00000+0 0  9991
2 39612   0.0155 332.8910 0000364 240.5228   5.0927  1.00268913 43130
EXPRESS-AT2             
1 39613U 14010B   26002.20458331 -.00000273  00000+0  00000+0 0  9995
2 39613   0.0159 338.8169 0001720 295.2269  41.3013  1.00270498 42832
EUTELSAT 3B             
1 39773U 14030A   26002.10612935  .00000028  00000+0  00000+0 0  9992
2 39773   0.0609   9.4639 0004288 232.9408 260.6326  1.00271456 42408
EUTELSAT 115 WEST B     
1 40425U 15010B   26002.08281587 -.00000016  00000+0  00000+0 0  9997
2 40425   0.0126 152.4554 0000439 275.6649 308.5285  1.00270312 39725
